{
  "type": "FeatureCollection",
  "features": [
    {
      "type": "Feature",
      "properties": {
        "norad_id": 40545,
        "name": "GSAT0204 (GALILEO 8)",
        "group": "gnss",
        "lat": 6.252283856965934,
        "lon": -9.580543749741837,
        "alt_km": 23224.866476077772,
        "timestamp": "2025-12-26T10:30:50.509808+00:00",
        "meta_object_name": "GSAT0204 (GALILEO 8)",
        "meta_object_id": "2015-017B",
        "meta_epoch": "2025-12-20T13:26:28.826304",
        "meta_mean_motion": 1.70475697,
        "meta_eccentricity": 0.0006133,
        "meta_inclination": 56.8522,
        "meta_ra_of_asc_node": 346.4847,
        "meta_arg_of_pericenter": 266.5447,
        "meta_mean_anomaly": 93.3948,
        "meta_ephemeris_type": 0,
        "meta_classification_type": "U",
        "meta_norad_cat_id": 40545,
        "meta_element_set_no": 999,
        "meta_rev_at_epoch": 2920,
        "meta_bstar": 0,
        "meta_mean_motion_dot": -7e-07,
        "meta_mean_motion_ddot": 0,
        "tle_line1": "1 40545U 15017B   25354.56005586 -.00000070  00000+0  00000+0 0  9992",
        "tle_line2": "2 40545  56.8522 346.4847 0006133 266.5447  93.3948  1.70475697 29206"
      },
      "geometry": {
        "type": "Point",
        "coordinates": [
          -9.580543749741837,
          6.252283856965934
        ]
      }
    },
    {
      "type": "Feature",
      "properties": {
        "norad_id": 40549,
        "name": "BEIDOU-3S IGSO-1S (C31)",
        "group": "gnss",
        "lat": 35.62186708606231,
        "lon": -24.828645510454713,
        "alt_km": 35901.774100939096,
        "timestamp": "2025-12-26T10:30:50.509820+00:00",
        "meta_object_name": "BEIDOU-3S IGSO-1S (C31)",
        "meta_object_id": "2015-019A",
        "meta_epoch": "2025-12-25T18:51:43.024032",
        "meta_mean_motion": 1.00290186,
        "meta_eccentricity": 0.00365496,
        "meta_inclination": 49.5274,
        "meta_ra_of_asc_node": 297.5574,
        "meta_arg_of_pericenter": 194.2723,
        "meta_mean_anomaly": 340.4455,
        "meta_ephemeris_type": 0,
        "meta_classification_type": "U",
        "meta_norad_cat_id": 40549,
        "meta_element_set_no": 999,
        "meta_rev_at_epoch": 3933,
        "meta_bstar": 0,
        "meta_mean_motion_dot": -1.76e-06,
        "meta_mean_motion_ddot": 0,
        "tle_line1": "1 40549U 15019A   25359.78591463 -.00000176  00000+0  00000+0 0  9998",
        "tle_line2": "2 40549  49.5274 297.5574 0036549 194.2723 340.4455  1.00290186 39339"
      },
      "geometry": {
        "type": "Point",
        "coordinates": [
          -24.828645510454713,
          35.62186708606231
        ]
      }
    },
    {
      "type": "Feature",
      "properties": {
        "norad_id": 40730,
        "name": "GPS BIIF-10 (PRN 08)",
        "group": "gnss",
        "lat": 12.355466506961614,
        "lon": 85.09516547240278,
        "alt_km": 20398.17727963329,
        "timestamp": "2025-12-26T10:30:50.509832+00:00",
        "meta_object_name": "GPS BIIF-10 (PRN 08)",
        "meta_object_id": "2015-033A",
        "meta_epoch": "2025-12-24T17:11:33.292320",
        "meta_mean_motion": 2.00564999,
        "meta_eccentricity": 0.0111668,
        "meta_inclination": 54.1203,
        "meta_ra_of_asc_node": 274.2801,
        "meta_arg_of_pericenter": 27.125,
        "meta_mean_anomaly": 333.5048,
        "meta_ephemeris_type": 0,
        "meta_classification_type": "U",
        "meta_norad_cat_id": 40730,
        "meta_element_set_no": 999,
        "meta_rev_at_epoch": 7649,
        "meta_bstar": 0,
        "meta_mean_motion_dot": -1.6e-07,
        "meta_mean_motion_ddot": 0,
        "tle_line1": "1 40730U 15033A   25358.71635755 -.00000016  00000+0  00000+0 0  9994",
        "tle_line2": "2 40730  54.1203 274.2801 0111668  27.1250 333.5048  2.00564999 76491"
      },
      "geometry": {
        "type": "Point",
        "coordinates": [
          85.09516547240278,
          12.355466506961614
        ]
      }
    },
    {
      "type": "Feature",
      "properties": {
        "norad_id": 40748,
        "name": "BEIDOU-3S M2S (C58)",
        "group": "gnss",
        "lat": 7.024709267322931,
        "lon": -47.07922370855788,
        "alt_km": 21531.658725463334,
        "timestamp": "2025-12-26T10:30:50.509843+00:00",
        "meta_object_name": "BEIDOU-3S M2S (C58)",
        "meta_object_id": "2015-037A",
        "meta_epoch": "2025-12-24T19:32:44.901312",
        "meta_mean_motion": 1.86229543,
        "meta_eccentricity": 0.00118109,
        "meta_inclination": 55.028,
        "meta_ra_of_asc_node": 308.0499,
        "meta_arg_of_pericenter": 271.2412,
        "meta_mean_anomaly": 88.6304,
        "meta_ephemeris_type": 0,
        "meta_classification_type": "U",
        "meta_norad_cat_id": 40748,
        "meta_element_set_no": 999,
        "meta_rev_at_epoch": 7087,
        "meta_bstar": 0,
        "meta_mean_motion_dot": -5.3e-07,
        "meta_mean_motion_ddot": 0,
        "tle_line1": "1 40748U 15037A   25358.81440858 -.00000053  00000+0  00000+0 0  9997",
        "tle_line2": "2 40748  55.0280 308.0499 0011810 271.2412  88.6304  1.86229543 70879"
      },
      "geometry": {
        "type": "Point",
        "coordinates": [
          -47.07922370855788,
          7.024709267322931
        ]
      }
    },
    {
      "type": "Feature",
      "properties": {
        "norad_id": 40749,
        "name": "BEIDOU-3S M1S (C57)",
        "group": "gnss",
        "lat": -28.40786634662788,
        "lon": 150.19283351273668,
        "alt_km": 21538.180260914018,
        "timestamp": "2025-12-26T10:30:50.509854+00:00",
        "meta_object_name": "BEIDOU-3S M1S (C57)",
        "meta_object_id": "2015-037B",
        "meta_epoch": "2025-12-25T13:55:00.289344",
        "meta_mean_motion": 1.8625384,
        "meta_eccentricity": 0.0003723,
        "meta_inclination": 55.0236,
        "meta_ra_of_asc_node": 308.0126,
        "meta_arg_of_pericenter": 2.956,
        "meta_mean_anomaly": 357.054,
        "meta_ephemeris_type": 0,
        "meta_classification_type": "U",
        "meta_norad_cat_id": 40749,
        "meta_element_set_no": 999,
        "meta_rev_at_epoch": 7089,
        "meta_bstar": 0,
        "meta_mean_motion_dot": -5.4e-07,
        "meta_mean_motion_ddot": 0,
        "tle_line1": "1 40749U 15037B   25359.57986446 -.00000054  00000+0  00000+0 0  9991",
        "tle_line2": "2 40749  55.0236 308.0126 0003723   2.9560 357.0540  1.86253840 70899"
      },
      "geometry": {
        "type": "Point",
        "coordinates": [
          150.19283351273668,
          -28.40786634662788
        ]
      }
    },
    {
      "type": "Feature",
      "properties": {
        "norad_id": 40889,
        "name": "GSAT0205 (GALILEO 9)",
        "group": "gnss",
        "lat": 24.42865388624156,
        "lon": 27.840751226417694,
        "alt_km": 23224.7266821182,
        "timestamp": "2025-12-26T10:30:50.509865+00:00",
        "meta_object_name": "GSAT0205 (GALILEO 9)",
        "meta_object_id": "2015-045A",
        "meta_epoch": "2025-12-23T06:16:38.782272",
        "meta_mean_motion": 1.70473104,
        "meta_eccentricity": 0.00062228,
        "meta_inclination": 55.0001,
        "meta_ra_of_asc_node": 226.4673,
        "meta_arg_of_pericenter": 42.5636,
        "meta_mean_anomaly": 317.5856,
        "meta_ephemeris_type": 0,
        "meta_classification_type": "U",
        "meta_norad_cat_id": 40889,
        "meta_element_set_no": 999,
        "meta_rev_at_epoch": 6401,
        "meta_bstar": 0,
        "meta_mean_motion_dot": 7.3e-07,
        "meta_mean_motion_ddot": 0,
        "tle_line1": "1 40889U 15045A   25357.26155998  .00000073  00000+0  00000+0 0  9999",
        "tle_line2": "2 40889  55.0001 226.4673 0006222  42.5636 317.5856  1.70473104 64013"
      },
      "geometry": {
        "type": "Point",
        "coordinates": [
          27.840751226417694,
          24.42865388624156
        ]
      }
    },
    {
      "type": "Feature",
      "properties": {
        "norad_id": 40890,
        "name": "GSAT0206 (GALILEO 10)",
        "group": "gnss",
        "lat": 11.521668590023502,
        "lon": -125.40232821345685,
        "alt_km": 23210.20416958704,
        "timestamp": "2025-12-26T10:30:50.509876+00:00",
        "meta_object_name": "GSAT0206 (GALILEO 10)",
        "meta_object_id": "2015-045B",
        "meta_epoch": "2025-12-25T05:48:23.394816",
        "meta_mean_motion": 1.7047315,
        "meta_eccentricity": 0.0004109,
        "meta_inclination": 54.9985,
        "meta_ra_of_asc_node": 226.4076,
        "meta_arg_of_pericenter": 41.5093,
        "meta_mean_anomaly": 318.6128,
        "meta_ephemeris_type": 0,
        "meta_classification_type": "U",
        "meta_norad_cat_id": 40890,
        "meta_element_set_no": 999,
        "meta_rev_at_epoch": 6407,
        "meta_bstar": 0,
        "meta_mean_motion_dot": 7e-07,
        "meta_mean_motion_ddot": 0,
        "tle_line1": "1 40890U 15045B   25359.24193744  .00000070  00000+0  00000+0 0  9999",
        "tle_line2": "2 40890  54.9985 226.4076 0004109  41.5093 318.6128  1.70473150 64070"
      },
      "geometry": {
        "type": "Point",
        "coordinates": [
          -125.40232821345685,
          11.521668590023502
        ]
      }
    }
  ]
}